format  = 'OEF2.0'       ! file format
rectype = 'ML'           ! record type (1L/ML)
refsys  = ECLM J2000     ! default reference system
END_OF_HEADER
2024YR4
! Keplerian elements: a, e, i, long. node, arg. peric., mean anomaly
 KEP   2.5158372264739257E+00  6.6147231358488334E-01   3.4081591689601 271.3638467058736 134.3660211574287  8.9807508635817811E+01
 MJD     61000.000000000 TDT
 MAG  24.047  0.150
! Non-gravitational parameters: model used, number of model parameters, dimension
 LSP   0  0    6
! PERIHELION   8.5168055567524181E-01
! APHELION   4.1799938972726087E+00
! ANODE   1.6127572216255353E+00
! DNODE  -1.5972754954827355E-02
! MOID   2.8025955741789008E-03
! PERIOD   1.4575458841286147E+03
! PHA F
! VINFTY    14.2099394211121
! U_PAR 3.6
! ORB_TYPE Apollo
! RMS    8.22274E-06   1.17255E-06   4.31528E-06   7.72689E-06   8.77081E-06   4.43718E-04
 COV   6.761349023292995E-11  9.641169229598910E-12  3.455209612944151E-11
 COV  -2.698392431335141E-13 -3.355319174380213E-11 -3.648576108094627E-09
 COV   1.374870613837155E-12  4.929704841025002E-12 -6.650015458519999E-16
 COV  -4.847806920276695E-12 -5.202593508271750E-10  1.862165526204594E-11
 COV   5.134621059010849E-12 -2.229754599613624E-11 -1.864735046016373E-09
 COV   5.970481732128419E-11 -5.391035411947562E-11  1.043606766606298E-11
 COV   7.692718769535180E-11  1.813046927223293E-09  1.968858651494249E-07
 COR   1.000000000000000E+00  9.999588162622035E-01  9.737524886875339E-01
 COR  -4.247014518402275E-03 -4.652401995331924E-01 -9.999987641452571E-01
 COR   9.999999999999999E-01  9.742734356443677E-01 -7.339847778378933E-05
 COR  -4.713836030512719E-01 -9.999578883360707E-01  1.000000000000000E+00
 COR   1.539907270798819E-01 -5.891257414850155E-01 -9.738694059234088E-01
 COR   9.999999999999998E-01 -7.954768947597106E-01  3.043861799291659E-03
 COR   9.999999999999999E-01  4.658668927870781E-01  1.000000000000000E+00
